X,Y,name,strasse,hausnr,plz,ort,anlage,kategorie,zugaenglichkeit,beschreibung,website
694684.226423888,247237.586990344,Schulhäuser Nänikon,Baumgartenweg,6,8606,Nänikon,Schulanlage Singvogel,Schule: Primarschule,halb-öffentlicher Raum (eingeschränkte resp. reglementierte Zugänglichkeit),,http://www.uster.ch/de/bildung/primarschule/primarschulhaus/?action=showschule&schule_id=505
694757.024742373,247195.275504007,Klairs - Näniker Vereinslokal,Bühlstrasse,16,8606,Nänikon,,Freizeitanlage: Gemeinschaftszentrum,Räumlichkeiten,,http://klairs.ch/
694630.428808255,247207.990577426,Kindergarten Vogelsang,Bühlweg,10,8606,Nänikon,,Schule: Kindergarten,nicht-öffentlicher Raum,,http://www.uster.ch/de/bildung/primarschule/kindergarten/?action=showschule&schule_id=361
694113.706387233,247229.437066832,Kindergarten Mettmenried,Mettmenriedstrasse,7,8606,Nänikon,,Schule: Kindergarten,nicht-öffentlicher Raum,,http://www.uster.ch/de/bildung/primarschule/kindergarten/?action=showschule&schule_id=352
694266.594611766,247478.85032376,Waldspielgruppe Wurzeln,Murggenstrasse,32,8606,Nänikon,,Kinderbetreuung: Spielgruppe,Räumlichkeiten,,www.waldspielgruppe-wurzeln.ch 
695065.081249293,247295.227674525,Spielgruppe Chindernäscht,Schwerzistrasse,21,8606,Nänikon,,Kinderbetreuung: Spielgruppe,Räumlichkeiten,,www.chindernaescht.ch
694372.121343381,247292.792963998,Spielgruppe Pumuckl,Stationsstrasse,49,8606,Nänikon,,Kinderbetreuung: Spielgruppe,Räumlichkeiten,,www.pumuckl-greifensee.net
696221.304901569,243166.587711941,Kinderhaus kidin.ch,Schulweg,1,8616,Riedikon,,Kinderbetreuung: nicht-FEB-Kita,Räumlichkeiten,,
696297.570195375,243069.423726895,Naturspielgruppe kidin.ch,Turicaphonstrasse,31,8616,Riedikon,,Kinderbetreuung: Spielgruppe,Räumlichkeiten,,www.kidin.ch
697646.75154221,244666.234326598,Schulhaus Oberuster,Aathalstrasse,31,8610,Uster,Schulanlage Oberuster,Schule: Primarschule,halb-öffentlicher Raum (eingeschränkte resp. reglementierte Zugänglichkeit),,http://www.oberuster.ch/
697671.965734384,244625.948579431,Kindergarten Oberuster,Aathalstrasse,35,8610,Uster,Schulanlage Oberuster,Schule: Kindergarten,halb-öffentlicher Raum (eingeschränkte resp. reglementierte Zugänglichkeit),,http://www.uster.ch/de/bildung/primarschule/kindergarten/?action=showschule&schule_id=354
697598.355585116,244601.060775335,Spielgruppe Summervogel,Aathalstrasse,38a,8610,Uster,,Kinderbetreuung: Spielgruppe,Räumlichkeiten,,www.spielgruppesummervogel.ch
696447.883586961,244628.64236789,KiTa Chinderchram,Apothekerstrasse,18,8610,Uster,,Kinderbetreuung: nicht-FEB-Kita,Räumlichkeiten,,
696960.722336782,245158.267339248,Spielgruppe Spielchischte Uster,Asylstrasse,2,8610,Uster,,Kinderbetreuung: Spielgruppe,Räumlichkeiten,,www.spielchischte-uster.ch
697285.222961867,245327.126155643,Kinderkrippe Beluga,Asylstrasse,24,8610,Uster,,Kinderbetreuung: FEB-Kita,Räumlichkeiten,,
696736.679316513,244975.674783271,Sozialberatung,Bahnhofstrasse,17,8610,Uster,Stadthaus,Anlaufstelle: Sozialberatung,Räumlichkeiten,,
696736.679316513,244975.674783271,"Fachstelle Kindheit, Jugend und Familie",Bahnhofstrasse,17,8610,Uster,Stadthaus,"Anlaufstelle: Kindheit, Jugend und Familie",Räumlichkeiten,,
696567.524159357,245249.941251564,Bibliothek Uster,Bankstrasse,17,8610,Uster,,Freizeitanlage: Bibliothek/Ludothek,Räumlichkeiten,,https://www.uster.ch/stadtundregionalbibliothek
697311.749810443,244085.774125185,Kindergarten Nossikon,Blindenholzstrasse,5,8610,Uster,,Schule: Kindergarten,nicht-öffentlicher Raum,,http://www.uster.ch/de/bildung/primarschule/kindergarten/?action=showschule&schule_id=1003
696811.89704126,244976.460133205,Kinderkrippe Fugu,Braschlergasse,8,8610,Uster,,Kinderbetreuung: nicht-FEB-Kita,Räumlichkeiten,,
696807.812867593,245161.138615817,biz Uster,Brunnenstrasse,1,8610,Uster,,"Anlaufstelle: Kindheit, Jugend und Familie",Räumlichkeiten,,
696684.238162655,245650.498717112,Kindergarten Brunnenwiese,Brunnenwiesenstrasse,32,8610,Uster,,Schule: Kindergarten,nicht-öffentlicher Raum,,http://www.uster.ch/de/bildung/primarschule/kindergarten/?action=showschule&schule_id=346
696972.187522807,244812.138326785,Kinderkrippe Heusser Staub,Florastrasse,26,8610,Uster,,Kinderbetreuung: FEB-Kita,Räumlichkeiten,,
696959.070480386,244981.462808545,Laden Jugendarbeit,Freiestrasse,19,8610,Uster,,"Anlaufstelle: Kindheit, Jugend und Familie",Räumlichkeiten,,https://jugendarbeit-uster.ch
696972.034785937,244926.740016869,Schulhaus Freiestrasse,Freiestrasse,20,8610,Uster,,Schule: Sekundarschule,halb-öffentlicher Raum (eingeschränkte resp. reglementierte Zugänglichkeit),,
696514.622845592,245172.82721202,Spielgruppe Lukiluks,Gerichtsstrasse,8,8610,Uster,,Kinderbetreuung: Spielgruppe,Räumlichkeiten,,www.lukiluks.ch
696798.02889719,245006.591986999,Kindergarten Gotthardweg,Gotthardweg,5,8610,Uster,,Schule: Kindergarten,nicht-öffentlicher Raum,,http://www.uster.ch/de/bildung/primarschule/kindergarten/?action=showschule&schule_id=347
695880.370025877,245654.30094439,Kindergarten Ackerstrasse,Gschwaderstrasse,3,8610,Uster,,Schule: Kindergarten,nicht-öffentlicher Raum,,http://www.uster.ch/de/bildung/primarschule/kindergarten/?action=showschule&schule_id=345
696603.238890026,246303.107062065,Schulhaus Gschwader,Gschwaderstrasse,70,8610,Uster,Schulanlage Gschwader,Schule: Primarschule,halb-öffentlicher Raum (eingeschränkte resp. reglementierte Zugänglichkeit),,http://www.uster.ch/de/bildung/primarschule/primarschulhaus/?action=showschule&schule_id=502
696603.238890026,246303.107062065,Kindergarten Gschwader,Gschwaderstrasse,70,8610,Uster,Schulanlage Gschwader,Schule: Kindergarten,halb-öffentlicher Raum (eingeschränkte resp. reglementierte Zugänglichkeit),,http://www.uster.ch/de/bildung/primarschule/kindergarten/?action=showschule&schule_id=348
696928.988498386,245669.028073201,Schulhäuser Hasenbühl,Hasenbühlstrasse,10,8610,Uster,Schulanlage Hasenbühl,Schule: Primarschule,halb-öffentlicher Raum (eingeschränkte resp. reglementierte Zugänglichkeit),,http://www.hasenbuehl.ch/
696825.412227614,244307.542272047,Kindergarten Heusser-Staub,Heusser-Staub-Strasse,1,8610,Uster,,Schule: Kindergarten,nicht-öffentlicher Raum,,http://www.uster.ch/de/bildung/primarschule/kindergarten/?action=showschule&schule_id=349
696150.048563295,244954.001096054,Hort im Lot,Im Lot,11,8610,Uster,,Kinderbetreuung: FEB-Kita,Räumlichkeiten,,
696149.226573454,244952.881095228,Kindergarten Im Lot,Im Lot,11,8610,Uster,,Schule: Kindergarten,nicht-öffentlicher Raum,,http://www.uster.ch/de/bildung/primarschule/kindergarten/?action=showschule&schule_id=350
697064.299982199,245155.548831373,Chinderhuus im Werk,Im Werk,3,8610,Uster,,Kinderbetreuung: FEB-Kita,Räumlichkeiten,,
697091.253912893,245151.271969068,Spielgruppe Glüehwürmli,Im Werk,8,8610,Uster,,Kinderbetreuung: Spielgruppe,Räumlichkeiten,,www.gluehwuermli.ch
697096.408797071,245166.393952396,Kindergarten Im Werk,Im Werk,8,8610,Uster,,Schule: Kindergarten,nicht-öffentlicher Raum,,http://www.uster.ch/de/bildung/primarschule/kindergarten/?action=showschule&schule_id=351
696560.125415784,245369.629894008,Kinderkrippe Muulwurf,Industriestrasse,23,8610,Uster,,Kinderbetreuung: FEB-Kita,Räumlichkeiten,,
695938.418000692,245004.171970164,Höhere Berufsbildung Uster,Krämerackerstrasse,15,8610,Uster,Bildungszentrum Uster,Schule: Erwachsenenbildung,halb-öffentlicher Raum (eingeschränkte resp. reglementierte Zugänglichkeit),,
695938.418000692,245004.171970164,Kantonsschule Uster,Krämerackerstrasse,15,8610,Uster,Bildungszentrum Uster,Schule: Kantonsschule,halb-öffentlicher Raum (eingeschränkte resp. reglementierte Zugänglichkeit),,
695938.418000692,245004.171970164,Berufsfachschule Uster,Krämerackerstrasse,15,8610,Uster,Bildungszentrum Uster,Schule: Berufsschule,halb-öffentlicher Raum (eingeschränkte resp. reglementierte Zugänglichkeit),,
696102.07775808,246193.783526528,Kinderkrippe Schatzkiste,Lorenweg,1,8610,Uster,,Kinderbetreuung: FEB-Kita,Räumlichkeiten,,
695292.261186478,245025.208889102,Kindergarten Wanne,Peierackerweg,3,8610,Uster,,Schule: Kindergarten,nicht-öffentlicher Raum,,http://www.uster.ch/de/bildung/primarschule/kindergarten/?action=showschule&schule_id=362
697550.569493506,245659.2568605,Schulhaus Weidli,Rehbühlstrasse,30,8610,Uster,,Schule: Sekundarschule,halb-öffentlicher Raum (eingeschränkte resp. reglementierte Zugänglichkeit),,
696503.295222696,244809.727138665,kjz Uster,Schulweg,4,8610,Uster,,"Anlaufstelle: Kindheit, Jugend und Familie",Räumlichkeiten,,
696475.524632051,244761.6131385,Schulhaus Dorf,Schulweg,6,8610,Uster,,Schule: Primarschule,halb-öffentlicher Raum (eingeschränkte resp. reglementierte Zugänglichkeit),,http://www.uster.ch/de/bildung/primarschule/primarschulhaus/?action=showschule&schule_id=501
695406.865428971,244436.061576664,KiTa Seegarten,Seefeldstrasse,4a,8610,Uster,,Kinderbetreuung: FEB-Kita,Räumlichkeiten,,
695540.837999125,244429.664328807,Schulhaus Niederuster,Seestrasse,109,8610,Uster,Schulanlage Niederuster,Schule: Primarschule,halb-öffentlicher Raum (eingeschränkte resp. reglementierte Zugänglichkeit),,http://www.uster.ch/de/bildung/primarschule/primarschulhaus/?action=showschule&schule_id=507
695540.837999125,244429.664328807,Kindergarten Niederuster,Seestrasse,109,8610,Uster,Schulanlage Niederuster,Schule: Kindergarten,halb-öffentlicher Raum (eingeschränkte resp. reglementierte Zugänglichkeit),,http://www.uster.ch/de/bildung/primarschule/kindergarten/?action=showschule&schule_id=353
698001.825115663,244359.074148171,Kindergarten Stöcklerstrasse,Stöcklerstrasse,9,8610,Uster,,Schule: Kindergarten,nicht-öffentlicher Raum,,http://www.uster.ch/de/bildung/primarschule/kindergarten/?action=showschule&schule_id=358
697919.862632086,244158.241760676,Spielgruppe Ameisinäscht,Tännbergstrasse,1,8610,Uster,,Kinderbetreuung: Spielgruppe,Räumlichkeiten,,www.ameisinaescht.ch
696554.196321191,245232.231236966,Ludothek Uster,Tannenzaunstrasse,8,8610,Uster,,Freizeitanlage: Bibliothek/Ludothek,Räumlichkeiten,,http://ludothek-uster.ch/
695955.013405789,246175.224888274,KiTa Zipfelchappe,Uster West,30,8610,Uster,,Kinderbetreuung: nicht-FEB-Kita,Räumlichkeiten,,
697446.766146058,245275.641421184,Krippe Rösligarten,Wagerenstrasse,47,8610,Uster,,Kinderbetreuung: nicht-FEB-Kita,Räumlichkeiten,,
695910.221667071,244760.942494439,Kinderkrippe und Hort Ramba Zamba,Weiherallee,3,8610,Uster,,Kinderbetreuung: FEB-Kita,Räumlichkeiten,,
697676.029616219,245845.742582291,Kindergarten Weidli,Wermatswilerstrasse,88,8610,Uster,Schulanlage Weidli,Schule: Kindergarten,halb-öffentlicher Raum (eingeschränkte resp. reglementierte Zugänglichkeit),,http://www.uster.ch/de/bildung/primarschule/kindergarten/?action=showschule&schule_id=363
695424.785002311,245290.664793159,Spielgruppe Sonnenberg,Wildsbergstrasse,22,8610,Uster,,Kinderbetreuung: Spielgruppe,Räumlichkeiten,,www.spielgruppe-sonnenberg.ch 
696296.455697969,245628.382961786,Spielgruppe WACkelöhrli,Winterthurerstrasse,18,8610,Uster,,Kinderbetreuung: Spielgruppe,Räumlichkeiten,,www.wac.ch
696523.178078154,243995.326132023,Schulhäuser Talacker,Wührestrasse,10,8610,Uster,Schulanlage Talacker,Schule: Primarschule,halb-öffentlicher Raum (eingeschränkte resp. reglementierte Zugänglichkeit),,http://www.uster.ch/de/bildung/primarschule/primarschulhaus/?action=showschule&schule_id=511
696523.178078154,243995.326132023,Kindergarten Talacker,Wührestrasse,10,8610,Uster,Schulanlage Talacker,Schule: Kindergarten,halb-öffentlicher Raum (eingeschränkte resp. reglementierte Zugänglichkeit),,http://www.uster.ch/de/bildung/primarschule/kindergarten/?action=showschule&schule_id=359
696687.231809089,244116.479622952,Waldkinder Uster,Wührestrasse,63,8610,Uster,,Kinderbetreuung: Spielgruppe,Räumlichkeiten,,www.waldkinderuster.ch
696576.004118363,244785.350544744,Mütter- und Väterberatung kjz Uster,Zentralstrasse,32,8610,Uster,Familienzentrum,"Anlaufstelle: Kindheit, Jugend und Familie",Räumlichkeiten,,
696576.004118363,244785.350544744,Elterntreffpunkt Familienzentrum,Zentralstrasse,32,8610,Uster,Familienzentrum,Freizeitanlage: Gemeinschaftszentrum,Räumlichkeiten,,
696576.004118363,244785.350544744,Familienzentrum Uster,Zentralstrasse,32,8610,Uster,Familienzentrum,"Anlaufstelle: Kindheit, Jugend und Familie",Räumlichkeiten,,https://familienzentrum-uster.ch/
696576.004118363,244785.350544744,Spielgruppe Lindos Matices,Zentralstrasse,32,8610,Uster,Familienzentrum,Kinderbetreuung: Spielgruppe,Räumlichkeiten,,www.familienzentrum-uster.ch/angebote-leistungen/spanisch-fuer-kinder-los-colores-de-mi-tierra/
696576.004118363,244785.350544744,Spielgruppe BiLiKiD,Zentralstrasse,32,8610,Uster,Familienzentrum,Kinderbetreuung: Spielgruppe,Räumlichkeiten,,www.bilikid.ch
696576.004118363,244785.350544744,Spielgruppe Traumland,Zentralstrasse,32,8610,Uster,,Kinderbetreuung: Spielgruppe,Räumlichkeiten,,www.familienzentrum-uster.ch/angebote-leistungen/spielgruppe-traumland/ 
696565.399393483,244748.514594495,Krippe Mary Poppins,Zentralstrasse,36,8610,Uster,,Kinderbetreuung: nicht-FEB-Kita,Räumlichkeiten,,
696342.21600832,245088.377632928,Schulhaus Pünt,Zürichstrasse,11,8610,Uster,Schulanlage Pünt,Schule: Primarschule,halb-öffentlicher Raum (eingeschränkte resp. reglementierte Zugänglichkeit),,http://www.uster.ch/de/bildung/primarschule/primarschulhaus/?action=showschule&schule_id=510
696342.21600832,245088.377632928,Kindergarten Pünt,Zürichstrasse,11,8610,Uster,Schulanlage Pünt,Schule: Kindergarten,halb-öffentlicher Raum (eingeschränkte resp. reglementierte Zugänglichkeit),,http://www.uster.ch/de/bildung/primarschule/kindergarten/?action=showschule&schule_id=355
696287.502882323,245138.503241605,frjz Freizeit- und Jugendzentrum,Zürichstrasse,30,8610,Uster,,Freizeitanlage: Gemeinschaftszentrum,Räumlichkeiten,,https://www.frjz.ch/
696287.502882323,245138.503241605,Spielgruppe Trückli,Zürichstrasse,30,8610,Uster,frjz Freizeit- und Jugendzentrum,Kinderbetreuung: Spielgruppe,Räumlichkeiten,,www.trueckliuster.jimdofree.com
695953.896008627,245305.116230644,Schulhaus Krämeracker,Zürichstrasse,31,8610,Uster,Schulanlage Krämeracker,Schule: Sekundarschule,halb-öffentlicher Raum (eingeschränkte resp. reglementierte Zugänglichkeit),,
695910.294838557,245355.887889587,Schulhaus Krämeracker,Zürichstrasse,33,8610,Uster,Schulanlage Krämeracker,Schule: Primarschule,halb-öffentlicher Raum (eingeschränkte resp. reglementierte Zugänglichkeit),,
695910.294838557,245355.887889587,Kindergarten Krämeracker,Zürichstrasse,33,8610,Uster,Schulanlage Krämeracker,Schule: Kindergarten,halb-öffentlicher Raum (eingeschränkte resp. reglementierte Zugänglichkeit),,
696490.524722811,245049.952430753,KESB Uster,Zürichstrasse,7,8610,Uster,,"Anlaufstelle: Kindheit, Jugend und Familie",Räumlichkeiten,,
698754.717333054,246543.442314344,Schulhäuser Wermatswil,Chammerholzstrasse,2,8615,Wermatswil,Schulanlage Wermatswil,Schule: Primarschule,halb-öffentlicher Raum (eingeschränkte resp. reglementierte Zugänglichkeit),,
698822.528104252,246552.318019218,Kindergarten Diemand,Kleinjogg-Strasse,2,8615,Wermatswil,,Schule: Kindergarten,nicht-öffentlicher Raum,,http://www.uster.ch/de/bildung/primarschule/kindergarten/?action=showschule&schule_id=1208
698823.584580277,246594.430189416,Kindergarten Gujer,Kleinjogg-Strasse,6,8615,Wermatswil,,Schule: Kindergarten,nicht-öffentlicher Raum,,http://www.uster.ch/de/bildung/primarschule/kindergarten/?action=showschule&schule_id=1209
697765,245652,Waldspielgruppe Huetlizwerg Uster,Müselweg,,8610,Uster,,Kinderbetreuung: Spielgruppe,öffentlicher Raum (resp. vergleichbare Zugänglichkeit),,http://huetlizwerg.ch/
695639,245111,Spielplatz Hohfuren,,,,,,Freizeitanlage: Spielplatz,,Dreh-Scheibe und Schaukelsessel,
696148,245201,Pumptrack,,,,,Zeughausareal,Sportanlage: Trendsportanlagen,öffentlicher Raum (resp. vergleichbare Zugänglichkeit),,
696971.757726044,244709.194795895,Spielplatz und Spielwiese Dorfbad,,,,,,Freizeitanlage: Spielplatz,,,
697821.150538344,244572.256192346,Spielplatz Sulzbacherstrasse,,,,,,Freizeitanlage: Spielplatz,,,
694657.156580498,244223.224696918,Spielplatz Seebad Niederuster,,,,,,Freizeitanlage: Spielplatz,,,
696487.7473089,244757.006580309,Spielplatz Schulhaus Dorf,,,,,,Freizeitanlage: Spielplatz,,,
696159.105236019,245039.10801366,Spielplatz Püntwiese,,,,,,Freizeitanlage: Spielplatz,,,
696487,244756,Spielplatz Musikschule Uster/Greifensee,,,,,,Freizeitanlage: Spielplatz,öffentlicher Raum (resp. vergleichbare Zugänglichkeit),,
695912.4,245331.4,Spielplatz Schulhaus Krämeracker ,,,,,Schulanlage Krämeracker,Freizeitanlage: Spielplatz,halb-öffentlicher Raum (eingeschränkte resp. reglementierte Zugänglichkeit),"Auf dem Schulgelände Krämeracker befindet sich ein grosses Klettergerüst aus Holz wie auch Baumstämme zum Balancie- ren und zwei Schaukeln. Ein Teil des Spiel- platzes befindet sich in der Sonne und der andere im Schatten einiger Bäume. Man kann sich bequem auf die Baumstämme setzen, richtige Sitzbänke hat es nicht.",
697543.4,245584.9,Spielplatz Schulhaus Weidli,,,,,Schulanlage Weidli,Freizeitanlage: Spielplatz,halb-öffentlicher Raum (eingeschränkte resp. reglementierte Zugänglichkeit),"Das Schulhaus Weidli bietet neben zwei Schaukeln und einem kleinen Balancier- parcours noch zwei Pingpongtische, einen grossen Fuss-/Basketballplatz und eine sehr grosse Wiese zum Spielen und Entspannen. Ein paar Bäume spenden Schatten auf die Wiese und ein wenig abseits befinden sich zwei Sitzbänke.",
696653.3,245048.5,Spielplatz Trampoline Hochhäuser,,,,,,Freizeitanlage: Spielplatz,öffentlicher Raum (resp. vergleichbare Zugänglichkeit),Im Zentrum vom Uster hat es drei in den Boden eingebaute Trampoline. Ausserdem hat es ein kleines Wasserspiel und eine lange Sitzbank zum Ausruhen.,
696865.80094614,244676.772480099,Spielplatz Villa am Aabach,,,,,,Freizeitanlage: Spielplatz,öffentlicher Raum (resp. vergleichbare Zugänglichkeit),"Hinter dem Dorfbad, gleich bei der Villa am Aabach, befinden sich eine grosse Fussballwiese sowie einige Reckstangen. Es hat keine Sitzbank, dafür eine schöne Wiese mit alten Bäumen zum Picknicken und Entspannen. ",
696453.17790024,244912.22949451,Spielplatz Untere Farb,,,,,,Freizeitanlage: Spielplatz,öffentlicher Raum (resp. vergleichbare Zugänglichkeit),"Anschliessend zum Stadtpark, im Schatten eines schönen Magnolienbaums befindet sich eine kleine Drehbank und ein grosser Sandplatz mit Brunnen zum Spielen. Rundherum hat es eine Wiese zum Ent- spannen und einige Steine sowie eine Sitzbank zum Ausruhen.  ",
697821.2,244572.3,einzelne Schaukel Sulzbacherstrasse,,,,,,Freizeitanlage: Spielplatz,öffentlicher Raum (resp. vergleichbare Zugänglichkeit),-,
697119.999306157,244425.514123117,Spielplatz Stauberberg,,,,,,Freizeitanlage: Spielplatz,öffentlicher Raum (resp. vergleichbare Zugänglichkeit),"Auf dem Stauberberg befindet sich ein grosser Spielplatz mit schöner Aussicht über Uster und auf den See. Mit einer Schaukel, Balancierbaumstämme, einer grosser Wiese und einem Spielbrunnen bietet der Spielplatz viel Abwechslung und Spass. Es hat Sitzbänke im Schatten und eine Grillstelle.",
698522.007648944,246785.002535832,"Spielplatz Stapfer, Wermatswil",,,,,,Freizeitanlage: Spielplatz,öffentlicher Raum (resp. vergleichbare Zugänglichkeit),An der ruhigen Ecke Chammerholz-/Leuberg- strasse findet man ein aus Holz gebautes Kletter- sowie Balanciergerüst mit einem Kiesuntergrund. Nebenan befindet sich ein kleiner Fussballplatz. Es hat keine Sitzbank in der Nähe. Ansonsten ein sehr schöner Spielplatz.,
696269.051594844,244932.69888106,Spielplatz Stadtpark,,,,,,Freizeitanlage: Spielplatz,öffentlicher Raum (resp. vergleichbare Zugänglichkeit),"Im schönen Stadtpark von Uster befindet sich ein kleiner Spielplatz mit Rutsche, einer Drehscheibe und einem kleinen Klettergerüst. Ein paar Bäume spenden Schatten über den Sandkasten und den Sitzbänken. Hinter dem Spielplatz befindet sich eine kleine Wiese zum Spielen und entspannen.",
698773.945779399,246537.001159025,Spielplatz Schulhaus Wermatswil,,,,,Schulanlage Wermatswil,Freizeitanlage: Spielplatz,halb-öffentlicher Raum (eingeschränkte resp. reglementierte Zugänglichkeit),"Mit einer Wiese, einem Kletterturm so- wie auch einem Klettergerüst und einer Rutsche bietet das Schulhaus Abwechslung beim Spielen. Bäume spenden Schatten und neben der Wiese befindet sich eine überdachte Sitzbank.",
694724.400079307,247392.597160361,Spielplatz Schulhaus Türmli,,,,,,Freizeitanlage: Spielplatz,halb-öffentlicher Raum (eingeschränkte resp. reglementierte Zugänglichkeit),Das alte Schulhaus Türmli bietet auf dem kleinen Areal ein Klettergerüst aus Holz und eine Wippe. Ausserdem hat es noch ein Fussballtor und als Sitzgelegenheit eine tiefe Steinmauer. ,
696550.43393242,244114.425835098,Spielplatz Schulhaus Talacker,,,,,Schulanlage Talacker,Freizeitanlage: Spielplatz,halb-öffentlicher Raum (eingeschränkte resp. reglementierte Zugänglichkeit),"Der grosse Spielplatz vom Schulhaus Talacker bietet ein Klettergerüst, Kraken, eine Drehscheibe sowie eine Seilbahn. Auf der einen Seite befindet sich eine grosse Spielwiese und auf der anderen ein Fuss-/ Basketballplatz. Eine lustige Pneuwippe ist das Highlight dieses Spielplatzes. In der Nähe findet man überdachte Sitzbänke mit Überblick über den ganzen Spielplatz.",
698866.867911121,242798.786838048,Spielplatz Schulhaus Sulzbach,,,,,,Freizeitanlage: Spielplatz,halb-öffentlicher Raum (eingeschränkte resp. reglementierte Zugänglichkeit),"Im ruhigen Sulzbach befindet sich ein bescheidener Spielplatz mit einer Rutsche, einer Schaukel und einem Sandkasten. Dazu hat es noch einen Basketballkorb und einige Sitzbänke in der Sonne.  ",
694735.449004759,247153.183086879,Spielplatz Schulhaus Singvogel (Bühl),,,,,Schulanlage Singvogel,Freizeitanlage: Spielplatz,halb-öffentlicher Raum (eingeschränkte resp. reglementierte Zugänglichkeit),"Gegenüber vom Spielplatz Singvogel befin- det sich der wunderschöne Spielplatz Bühl. Der Spielplatz bietet eine Rutsche, einen Sandplatz und Brunnen zum Spielen, eine Schaukel und einen Tunnel. Die Bäume um den Spielplatz herum spenden Schatten über den Spielbereich und die Sitzbank. ",
696242.381544189,244997.426620665,Spielplatz Schulhaus Pünt,,,,,Schulanlage Pünt,Freizeitanlage: Spielplatz,halb-öffentlicher Raum (eingeschränkte resp. reglementierte Zugänglichkeit),Im Anschluss zum Stadtpark befindet sich der Spielplatz Pünt. Der Spielplatz besteht aus einem schwierigeren Klettergerüst und einer Korbschaukel in knalligem Grün. Es hat eine Sitzbank gleich beim Klettergerüst. Pingpongtische sind auch vorhanden. Dieser Spielplatz ist für Kinder ab 3 Jahren geeignet.,
697650.796507667,244714.55879317,Spielplatz Schulhaus Oberuster,,,,,Schulanlage Oberuster,Freizeitanlage: Spielplatz,halb-öffentlicher Raum (eingeschränkte resp. reglementierte Zugänglichkeit),Hinter dem Schulhaus Oberuster stehen ein Klettergerüst sowie ein Brunnen zum Spielen und Balancierbaumstämme. Einige Betonröhren laden zum Verstecken ein. Auch ein Platz zum Basketball- und Fuss- ballspielen ist vorhanden. Gleich neben dem Spielplatz gibt es eine grosse Wiese zum Picknicken und Spielen.,
695551.422039761,244392.909530492,Spielplatz Schulhaus Niederuster,,,,,Schulanlage Niederuster,Freizeitanlage: Spielplatz,halb-öffentlicher Raum (eingeschränkte resp. reglementierte Zugänglichkeit),"Auf dem Schulareal Niederuster hat es einen grossen Spielplatz mit Klettertürmen, zwei Rutschen, ein grosses Balanciergerüst und eine weite Wiese zum Spielen. Schöne, alte Bäume spenden viel Schatten über den Spielplatz und den Sitzbänken. Im Sommer lädt zudem ein grosser Brunnen zum Plantschen ein.",
696962.765801655,245734.721219614,Spielplatz Schulhaus Hasenbühl,,,,,Schulanlage Hasenbühl,Freizeitanlage: Spielplatz,halb-öffentlicher Raum (eingeschränkte resp. reglementierte Zugänglichkeit),Mit einem grossen Balanciergerüst so- wie verschiedenen Schaukeln und einem Fussballplatz ermöglicht der Spielplatz viel Abwechslung beim Spielen. Es hat keine Sitzbänke in der Nähe. Dafür bietet der direkt angrenzende Wald noch viel Platz zum Spielen und Austoben.,
696622.114804447,246342.739697594,Spielplatz Schulhaus Gschwader,,,,,Schulanlage Gschwader,Freizeitanlage: Spielplatz,halb-öffentlicher Raum (eingeschränkte resp. reglementierte Zugänglichkeit),"Auf einem grösseren Schulplatz bietet der Spielplatz Balancierbaumstämme, ein Sandkasten mit Wasser, ein Klettergerüst wie auch Reckstangen und genügend Platz, um zu rennen und zu toben. Es hat eine grössere Sitzbank in der Sonne sowie einige überdachte Sitzgelegenheiten etwas weiter entfernt.",
696277.876943443,246334.024147896,Spielplatz Rebenweg,,,,,,Freizeitanlage: Spielplatz,öffentlicher Raum (resp. vergleichbare Zugänglichkeit),"Mit Ausblick über Uster bietet der Spielplatz am Rebenweg ein grosses Klettergerüst mit Schaukel, sowie Balancierbaumstämme, eine Wasserrinne zum Spielen und eine Spielwiese. Etwas erhöht hat es einige Picknickbänke in der Sonne wie auch im Schatten.",
696889.703966144,244041.900968312,Spielplatz Otto Schaufelberger-Platz,,,,,,Freizeitanlage: Spielplatz,öffentlicher Raum (resp. vergleichbare Zugänglichkeit),"Die zwei Schaukeln am Otto Schaufelberger-Platz liegen auf eienm Hügel, wodurch man eine wunderschöne Aussicht über die Stadt Uster und den Greifensee geniessen kann. Ein Baum spendet Schatten über die Schaukeln und die angrenzenden Sitzbänke. Eine kleine Oase der Entspannung für die ganze Familie. ",
694674.580944259,247182.618681689,"Spielplatz Bühl, Nänikon (Singvogel)",,,,,Schulanlage Singvogel,Freizeitanlage: Spielplatz,öffentlicher Raum (resp. vergleichbare Zugänglichkeit),"Gegenüber vom Spielplatz Singvogel befindet sich der wunderschöne Spielplatz Bühl. Der Spielplatz bietet eine Rutsche, einen Sandplatz und einen Brunnen zum Spielen, eine Schaukel und einen Tunnel. Die Bäume um den Spielplatz herum spenden Schatten über den Spielbereich und die Sitzbank. ",
697247.526032808,246257.339647492,Spielplatz Buchholz,,,,,Sportanlage Buchholz,Freizeitanlage: Spielplatz,öffentlicher Raum (resp. vergleichbare Zugänglichkeit),"Neben unzähligen Sportangeboten bietet das Buchholz auch einen kleinen Spielplatz. Es hat ein Kletterflugzeug mit einer integrierter, steilen Rutsche und ein kleines Klettergerüst auf sandigem Untergrund. Ein Picknicktisch bietet die Möglichkeit, etwas zur Ruhe zu kommen. ",
697180.957789217,244538.265029081,Abenteuerspielplatz Holzwurm,,,,,,Freizeitanlage: Gemeinschaftszentrum,halb-öffentlicher Raum (eingeschränkte resp. reglementierte Zugänglichkeit),"Der grosse und wilde Abenteuerspielplatz Holzwurm bietet viel Spass und Abwechslung. Auf dem grossen Areal können sich Kinder nach Lust und Laune austoben. Sie können Hütten bauen, mit Metall experimentieren oder durch Drachen klettern. Zudem können sie mit Sand und Wasser spielen oder mit Freunden und Familie am Feuer bräteln und noch vieles mehr. ",
0,0,Vitaparcour,,,,,Sportanlage Buchholz,Sportanlage: Laufstrecken,öffentlicher Raum (resp. vergleichbare Zugänglichkeit),,https://www.zurichvitaparcours.ch/
697245.594874006,246352.262281256,Trendsportplatz Buchholz,,,,,Sportanlage Buchholz,Sportanlage: Trendsportanlagen,halb-öffentlicher Raum (eingeschränkte resp. reglementierte Zugänglichkeit),,http://www.uster.ch/de/sportkultur/sportn/anlagen/welcome.php?action=showobject&object_id=1414
697236.641079619,246068.911673183,Tennishalle Blue Point,,,,,Sportanlage Buchholz,Sportanlage: Tennisanlagen,Räumlichkeiten,,http://www.bluepoint.ch/
694715.087458805,244137.183762569,Strandbad,,,,,,Sportanlage: Bäder,halb-öffentlicher Raum (eingeschränkte resp. reglementierte Zugänglichkeit),,http://www.uster.ch/anlagen/1411
697191.533664708,246129.736356364,Squash Courts Blue Shuttle,,,,,Sportanlage Buchholz,Sportanlage: Squashanlagen,Räumlichkeiten,,http://www.blueshuttle.ch/squash.html
697225.539935479,246304.689606937,Sporthalle Buchholz,,,,,Sportanlage Buchholz,Sportanlage: Dreifachturnhallen,Räumlichkeiten,,http://www.uster.ch/anlagen/4955
697132.803847789,246193.154027543,Sportanlage Buchholz,,,,,Sportanlage Buchholz,Sportanlage: Fussballplätze,halb-öffentlicher Raum (eingeschränkte resp. reglementierte Zugänglichkeit),,http://www.uster.ch/anlagen/1414
697575.658727828,245593.120778279,Schulanlage Weidli,,,,,Schulanlage Weidli,Sportanlage: Hartplätze (Asphalt),halb-öffentlicher Raum (eingeschränkte resp. reglementierte Zugänglichkeit),,http://www.uster.ch/anlagen/9532
697555.770196108,245605.825851098,Schulanlage Weidli,,,,,Schulanlage Weidli,Sportanlage: Einfachturnhallen,Räumlichkeiten,,http://www.uster.ch/anlagen/9532
697532.665190267,245536.99330468,Schulanlage Weidli,,,,,Schulanlage Weidli,Sportanlage: Spielwiesen,halb-öffentlicher Raum (eingeschränkte resp. reglementierte Zugänglichkeit),,http://www.uster.ch/anlagen/9532
696520.387173113,244144.206397744,Schulanlage Talacker,,,,,Schulanlage Talacker,Sportanlage: Spielwiesen,halb-öffentlicher Raum (eingeschränkte resp. reglementierte Zugänglichkeit),,http://www.uster.ch/anlagen/9532
696510.201671699,244057.736851514,Schulanlage Talacker,,,,,Schulanlage Talacker,Sportanlage: Einfachturnhallen,Räumlichkeiten,,http://www.uster.ch/anlagen/9532
694656.225982192,247233.576193343,Schulanlage Singvogel,,,,,Schulanlage Singvogel,Sportanlage: Einfachturnhallen,Räumlichkeiten,,http://www.uster.ch/anlagen/9532
694680.135106558,247184.417747035,Schulanlage Singvogel,,,,,Schulanlage Singvogel,Sportanlage: Spielwiesen,halb-öffentlicher Raum (eingeschränkte resp. reglementierte Zugänglichkeit),,http://www.uster.ch/anlagen/9532
694686.353623198,247248.211150661,Schulanlage Singvogel,,,,,Schulanlage Singvogel,Sportanlage: Hartplätze (Asphalt),halb-öffentlicher Raum (eingeschränkte resp. reglementierte Zugänglichkeit),,http://www.uster.ch/anlagen/9532
696318.070950233,245087.437436873,Schulanlage Pünt,,,,,Schulanlage Pünt,Sportanlage: Einfachturnhallen,Räumlichkeiten,,http://www.uster.ch/anlagen/9532
696355.918129176,245035.81302705,Schulanlage Pünt,,,,,Schulanlage Pünt,Sportanlage: Hartplätze (Asphalt),halb-öffentlicher Raum (eingeschränkte resp. reglementierte Zugänglichkeit),,http://www.uster.ch/anlagen/9532
696297.378299981,245020.373951222,Schulanlage Pünt,,,,,Schulanlage Pünt,Sportanlage: Spielwiesen,halb-öffentlicher Raum (eingeschränkte resp. reglementierte Zugänglichkeit),,http://www.uster.ch/anlagen/9532
697630.821259178,244696.957477287,Schulanlage Oberuster,,,,,Schulanlage Oberuster,Sportanlage: Dreifachturnhallen,Räumlichkeiten,,http://www.uster.ch/anlagen/9532
695594.578702203,244429.400437422,Schulanlage Niederuster,,,,,Schulanlage Niederuster,Sportanlage: Spielwiesen,halb-öffentlicher Raum (eingeschränkte resp. reglementierte Zugänglichkeit),,http://www.uster.ch/anlagen/9532
695515.66787018,244393.322319254,Schulanlage Niederuster,,,,,Schulanlage Niederuster,Sportanlage: Einfachturnhallen,Räumlichkeiten,,http://www.uster.ch/anlagen/9532
695914.939525716,245259.679626619,Schulanlage Krämeracker,,,,,Schulanlage Krämeracker,Sportanlage: Hartplätze (Asphalt),halb-öffentlicher Raum (eingeschränkte resp. reglementierte Zugänglichkeit),,http://www.uster.ch/anlagen/9532
695925.875537774,245230.24888832,Schulanlage Krämeracker,,,,,Schulanlage Krämeracker,Sportanlage: Einfachturnhallen,Räumlichkeiten,,http://www.uster.ch/anlagen/9532
695883.203647622,245235.877718046,Schulanlage Krämeracker,,,,,Schulanlage Krämeracker,Sportanlage: Spielwiesen,halb-öffentlicher Raum (eingeschränkte resp. reglementierte Zugänglichkeit),,http://www.uster.ch/anlagen/9532
696891.032208891,245676.052202973,Schulanlage Hasenbühl,,,,,Schulanlage Hasenbühl,Sportanlage: Einfachturnhallen,Räumlichkeiten,,http://www.uster.ch/anlagen/9532
696908.937248224,245721.994175152,Schulanlage Hasenbühl,,,,,Schulanlage Hasenbühl,Sportanlage: Spielwiesen,halb-öffentlicher Raum (eingeschränkte resp. reglementierte Zugänglichkeit),,http://www.uster.ch/anlagen/9532
696955.629731036,245713.416910805,Schulanlage Hasenbühl,,,,,Schulanlage Hasenbühl,Sportanlage: Hartplätze (Asphalt),halb-öffentlicher Raum (eingeschränkte resp. reglementierte Zugänglichkeit),,http://www.uster.ch/anlagen/9532
696661.483171692,246309.429567406,Schulanlage Gschwader,,,,,Schulanlage Gschwader,Sportanlage: Spielwiesen,halb-öffentlicher Raum (eingeschränkte resp. reglementierte Zugänglichkeit),,http://www.uster.ch/anlagen/9532
696610.984527825,246361.590056241,Schulanlage Gschwader,,,,,Schulanlage Gschwader,Sportanlage: Einfachturnhallen,Räumlichkeiten,,http://www.uster.ch/anlagen/9532
696628.299880232,246344.274703839,Schulanlage Gschwader,,,,,Schulanlage Gschwader,Sportanlage: Hartplätze (Asphalt),halb-öffentlicher Raum (eingeschränkte resp. reglementierte Zugänglichkeit),,http://www.uster.ch/anlagen/9532
696913.333096204,244878.366618314,Schulanlage Freiestrasse,,,,,,Sportanlage: Einfachturnhallen,Räumlichkeiten,,http://www.uster.ch/anlagen/9532
697148.135707818,246226.390926905,Leichtathletik-Anlage Buchholz,,,,,Sportanlage Buchholz,Sportanlage: Leichtathletikanlagen,halb-öffentlicher Raum (eingeschränkte resp. reglementierte Zugänglichkeit),,http://www.uster.ch/anlagen/1414
696377.468505865,245017.961595629,Landihalle,,,,,,Sportanlage: Einfachturnhallen,Räumlichkeiten,,http://www.uster.ch/anlagen/11779
0,0,Helsana Trail (grün),,,,,Sportanlage Buchholz,Sportanlage: Laufstrecken,öffentlicher Raum (resp. vergleichbare Zugänglichkeit),,https://www.helsana.ch/de/private/vorteile/gesundheitsfoerderung/helsana-trails/standorte
0,0,Helsana Trail (gelb),,,,,Sportanlage Buchholz,Sportanlage: Laufstrecken,öffentlicher Raum (resp. vergleichbare Zugänglichkeit),,https://www.helsana.ch/de/private/vorteile/gesundheitsfoerderung/helsana-trails/standorte
0,0,Helsana Trail (blau),,,,,Sportanlage Buchholz,Sportanlage: Laufstrecken,öffentlicher Raum (resp. vergleichbare Zugänglichkeit),,https://www.helsana.ch/de/private/vorteile/gesundheitsfoerderung/helsana-trails/standorte
697287.516253522,246207.735376939,Hallenbad,,,,,Sportanlage Buchholz,Sportanlage: Bäder,Räumlichkeiten,,http://www.uster.ch/anlagen/9526
697343.804550828,244490.995917055,Fussballanlage Heusser-Staub,,,,,,Sportanlage: Fussballplätze,halb-öffentlicher Raum (eingeschränkte resp. reglementierte Zugänglichkeit),,http://www.uster.ch/anlagen/9845
0,0,Finnenbahn Buchholz,,,,,Sportanlage Buchholz,Sportanlage: Laufstrecken,öffentlicher Raum (resp. vergleichbare Zugänglichkeit),,http://www.uster.ch/anlagen/1414
696914.405254247,244781.121883732,Dorfbad,,,,,,Sportanlage: Bäder,halb-öffentlicher Raum (eingeschränkte resp. reglementierte Zugänglichkeit),,http://www.uster.ch/anlagen/1412
697215.468546184,246117.731417357,Badmintonhalle Blue Shuttle,,,,,Sportanlage Buchholz,Sportanlage: Badmintonanlagen,Räumlichkeiten,,http://www.bluepoint.ch/
